CCSDS_OMM_VERS = 2.0
CREATION_DATE  = 
ORIGINATOR     = 

OBJECT_NAME    = UNKNOWN
OBJECT_ID      = 
CENTER_NAME    = EARTH
REF_FRAME      = TEME
TIME_SYSTEM    = UTC
MEAN_ELEMENT_THEORY = SGP/SGP4

EPOCH          = 2026-01-18T15:59:24.697248
MEAN_MOTION    = 12.97066515
ECCENTRICITY   = .00341355
INCLINATION    = 90.2409
RA_OF_ASC_NODE = 7.4009
ARG_OF_PERICENTER = 123.0722
MEAN_ANOMALY   = 237.3684

EPHEMERIS_TYPE = 0
CLASSIFICATION_TYPE = U
NORAD_CAT_ID   = 270115
ELEMENT_SET_NO = 999
REV_AT_EPOCH   = 29001
BSTAR          = .14160165E-3
MEAN_MOTION_DOT = .49E-6
MEAN_MOTION_DDOT = 0

CCSDS_OMM_VERS = 2.0
CREATION_DATE  = 
ORIGINATOR     = 

OBJECT_NAME    = UNKNOWN
OBJECT_ID      = 
CENTER_NAME    = EARTH
REF_FRAME      = TEME
TIME_SYSTEM    = UTC
MEAN_ELEMENT_THEORY = SGP/SGP4

EPOCH          = 2026-01-18T12:08:52.678464
MEAN_MOTION    = 12.23517490
ECCENTRICITY   = .01315643
INCLINATION    = 74.0078
RA_OF_ASC_NODE = 296.7191
ARG_OF_PERICENTER = 158.9240
MEAN_ANOMALY   = 201.7288

EPHEMERIS_TYPE = 0
CLASSIFICATION_TYPE = U
NORAD_CAT_ID   = 270116
ELEMENT_SET_NO = 999
REV_AT_EPOCH   = 27461
BSTAR          = .53731769E-3
MEAN_MOTION_DOT = .45E-6
MEAN_MOTION_DDOT = 0

CCSDS_OMM_VERS = 2.0
CREATION_DATE  = 
ORIGINATOR     = 

OBJECT_NAME    = UNKNOWN
OBJECT_ID      = 
CENTER_NAME    = EARTH
REF_FRAME      = TEME
TIME_SYSTEM    = UTC
MEAN_ELEMENT_THEORY = SGP/SGP4

EPOCH          = 2026-01-18T16:40:48.027648
MEAN_MOTION    = 13.00266684
ECCENTRICITY   = .00253864
INCLINATION    = 90.2348
RA_OF_ASC_NODE = 357.7829
ARG_OF_PERICENTER = 262.1878
MEAN_ANOMALY   = 97.6362

EPHEMERIS_TYPE = 0
CLASSIFICATION_TYPE = U
NORAD_CAT_ID   = 270117
ELEMENT_SET_NO = 999
REV_AT_EPOCH   = 29133
BSTAR          = .33051102E-2
MEAN_MOTION_DOT = .1007E-4
MEAN_MOTION_DDOT = 0

CCSDS_OMM_VERS = 2.0
CREATION_DATE  = 
ORIGINATOR     = 

OBJECT_NAME    = UNKNOWN
OBJECT_ID      = 
CENTER_NAME    = EARTH
REF_FRAME      = TEME
TIME_SYSTEM    = UTC
MEAN_ELEMENT_THEORY = SGP/SGP4

EPOCH          = 2026-01-17T17:41:07.677024
MEAN_MOTION    = 14.55224619
ECCENTRICITY   = .00049152
INCLINATION    = 98.6871
RA_OF_ASC_NODE = 191.0015
ARG_OF_PERICENTER = 197.8698
MEAN_ANOMALY   = 162.2326

EPHEMERIS_TYPE = 0
CLASSIFICATION_TYPE = U
NORAD_CAT_ID   = 270121
ELEMENT_SET_NO = 999
REV_AT_EPOCH   = 32499
BSTAR          = .37935757E-3
MEAN_MOTION_DOT = .1593E-4
MEAN_MOTION_DDOT = 0

CCSDS_OMM_VERS = 2.0
CREATION_DATE  = 
ORIGINATOR     = 

OBJECT_NAME    = UNKNOWN
OBJECT_ID      = 
CENTER_NAME    = EARTH
REF_FRAME      = TEME
TIME_SYSTEM    = UTC
MEAN_ELEMENT_THEORY = SGP/SGP4

EPOCH          = 2026-01-17T05:30:22.704480
MEAN_MOTION    = 12.96259722
ECCENTRICITY   = .00274277
INCLINATION    = 90.2419
RA_OF_ASC_NODE = 8.4730
ARG_OF_PERICENTER = 207.9157
MEAN_ANOMALY   = 152.0493

EPHEMERIS_TYPE = 0
CLASSIFICATION_TYPE = U
NORAD_CAT_ID   = 270122
ELEMENT_SET_NO = 999
REV_AT_EPOCH   = 28981
BSTAR          = -.82302081E-3
MEAN_MOTION_DOT = -.228E-5
MEAN_MOTION_DDOT = 0

CCSDS_OMM_VERS = 2.0
CREATION_DATE  = 
ORIGINATOR     = 

OBJECT_NAME    = UNKNOWN
OBJECT_ID      = 
CENTER_NAME    = EARTH
REF_FRAME      = TEME
TIME_SYSTEM    = UTC
MEAN_ELEMENT_THEORY = SGP/SGP4

EPOCH          = 2026-01-08T16:28:32.523456
MEAN_MOTION    = 12.23651748
ECCENTRICITY   = .08119744
INCLINATION    = 83.2632
RA_OF_ASC_NODE = 347.2710
ARG_OF_PERICENTER = 117.3941
MEAN_ANOMALY   = 251.2107

EPHEMERIS_TYPE = 0
CLASSIFICATION_TYPE = U
NORAD_CAT_ID   = 270123
ELEMENT_SET_NO = 999
REV_AT_EPOCH   = 27282
BSTAR          = .2982836E-2
MEAN_MOTION_DOT = .961E-5
MEAN_MOTION_DDOT = 0

CCSDS_OMM_VERS = 2.0
CREATION_DATE  = 
ORIGINATOR     = 

OBJECT_NAME    = UNKNOWN
OBJECT_ID      = 
CENTER_NAME    = EARTH
REF_FRAME      = TEME
TIME_SYSTEM    = UTC
MEAN_ELEMENT_THEORY = SGP/SGP4

EPOCH          = 2026-01-18T16:41:50.054208
MEAN_MOTION    = 12.96869400
ECCENTRICITY   = .00283555
INCLINATION    = 90.2429
RA_OF_ASC_NODE = 9.8705
ARG_OF_PERICENTER = 68.1583
MEAN_ANOMALY   = 292.2549

EPHEMERIS_TYPE = 0
CLASSIFICATION_TYPE = U
NORAD_CAT_ID   = 270124
ELEMENT_SET_NO = 999
REV_AT_EPOCH   = 29090
BSTAR          = -.90832836E-3
MEAN_MOTION_DOT = -.254E-5
MEAN_MOTION_DDOT = 0

CCSDS_OMM_VERS = 2.0
CREATION_DATE  = 
ORIGINATOR     = 

OBJECT_NAME    = UNKNOWN
OBJECT_ID      = 
CENTER_NAME    = EARTH
REF_FRAME      = TEME
TIME_SYSTEM    = UTC
MEAN_ELEMENT_THEORY = SGP/SGP4

EPOCH          = 2026-01-16T13:41:02.580000
MEAN_MOTION    = 14.75699304
ECCENTRICITY   = .00175532
INCLINATION    = 86.3283
RA_OF_ASC_NODE = 320.3120
ARG_OF_PERICENTER = 122.1196
MEAN_ANOMALY   = 238.1729

EPHEMERIS_TYPE = 0
CLASSIFICATION_TYPE = U
NORAD_CAT_ID   = 270127
ELEMENT_SET_NO = 999
REV_AT_EPOCH   = 32585
BSTAR          = .10889318E-2
MEAN_MOTION_DOT = .7487E-4
MEAN_MOTION_DDOT = 0

CCSDS_OMM_VERS = 2.0
CREATION_DATE  = 
ORIGINATOR     = 

OBJECT_NAME    = UNKNOWN
OBJECT_ID      = 
CENTER_NAME    = EARTH
REF_FRAME      = TEME
TIME_SYSTEM    = UTC
MEAN_ELEMENT_THEORY = SGP/SGP4

EPOCH          = 2026-01-04T06:46:03.539424
MEAN_MOTION    = 12.33808269
ECCENTRICITY   = .00465799
INCLINATION    = 102.4351
RA_OF_ASC_NODE = 10.1622
ARG_OF_PERICENTER = 199.2319
MEAN_ANOMALY   = 160.6981

EPHEMERIS_TYPE = 0
CLASSIFICATION_TYPE = U
NORAD_CAT_ID   = 270128
ELEMENT_SET_NO = 999
REV_AT_EPOCH   = 27501
BSTAR          = .54470118E-3
MEAN_MOTION_DOT = .21E-6
MEAN_MOTION_DDOT = 0

CCSDS_OMM_VERS = 2.0
CREATION_DATE  = 
ORIGINATOR     = 

OBJECT_NAME    = UNKNOWN
OBJECT_ID      = 
CENTER_NAME    = EARTH
REF_FRAME      = TEME
TIME_SYSTEM    = UTC
MEAN_ELEMENT_THEORY = SGP/SGP4

EPOCH          = 2026-01-13T17:10:23.940768
MEAN_MOTION    = 12.98619151
ECCENTRICITY   = .00304754
INCLINATION    = 90.2367
RA_OF_ASC_NODE = 5.1271
ARG_OF_PERICENTER = 117.7016
MEAN_ANOMALY   = 242.7203

EPHEMERIS_TYPE = 0
CLASSIFICATION_TYPE = U
NORAD_CAT_ID   = 270129
ELEMENT_SET_NO = 999
REV_AT_EPOCH   = 28986
BSTAR          = .152139E-2
MEAN_MOTION_DOT = .457E-5
MEAN_MOTION_DDOT = 0

CCSDS_OMM_VERS = 2.0
CREATION_DATE  = 
ORIGINATOR     = 

OBJECT_NAME    = UNKNOWN
OBJECT_ID      = 
CENTER_NAME    = EARTH
REF_FRAME      = TEME
TIME_SYSTEM    = UTC
MEAN_ELEMENT_THEORY = SGP/SGP4

EPOCH          = 2025-12-28T02:48:09.825696
MEAN_MOTION    = 15.05820169
ECCENTRICITY   = .00096101
INCLINATION    = 99.1711
RA_OF_ASC_NODE = 144.9910
ARG_OF_PERICENTER = 249.4448
MEAN_ANOMALY   = 110.5743

EPHEMERIS_TYPE = 0
CLASSIFICATION_TYPE = U
NORAD_CAT_ID   = 270130
ELEMENT_SET_NO = 999
REV_AT_EPOCH   = 31766
BSTAR          = .17108396E-1
MEAN_MOTION_DOT = .257334E-2
MEAN_MOTION_DDOT = 0

CCSDS_OMM_VERS = 2.0
CREATION_DATE  = 
ORIGINATOR     = 

OBJECT_NAME    = UNKNOWN
OBJECT_ID      = 
CENTER_NAME    = EARTH
REF_FRAME      = TEME
TIME_SYSTEM    = UTC
MEAN_ELEMENT_THEORY = SGP/SGP4

EPOCH          = 2026-01-18T14:45:52.263936
MEAN_MOTION    = 4.52466214
ECCENTRICITY   = .54156025
INCLINATION    = 63.1132
RA_OF_ASC_NODE = 138.2237
ARG_OF_PERICENTER = 348.0761
MEAN_ANOMALY   = 2.9525

EPHEMERIS_TYPE = 0
CLASSIFICATION_TYPE = U
NORAD_CAT_ID   = 270131
ELEMENT_SET_NO = 999
REV_AT_EPOCH   = 10158
BSTAR          = .1197463E-2
MEAN_MOTION_DOT = .118E-5
MEAN_MOTION_DDOT = 0

CCSDS_OMM_VERS = 2.0
CREATION_DATE  = 
ORIGINATOR     = 

OBJECT_NAME    = UNKNOWN
OBJECT_ID      = 
CENTER_NAME    = EARTH
REF_FRAME      = TEME
TIME_SYSTEM    = UTC
MEAN_ELEMENT_THEORY = SGP/SGP4

EPOCH          = 2026-01-17T05:15:04.525632
MEAN_MOTION    = 12.79599081
ECCENTRICITY   = .03913682
INCLINATION    = 63.2062
RA_OF_ASC_NODE = 359.7802
ARG_OF_PERICENTER = 19.5866
MEAN_ANOMALY   = 341.9694

EPHEMERIS_TYPE = 0
CLASSIFICATION_TYPE = U
NORAD_CAT_ID   = 270133
ELEMENT_SET_NO = 999
REV_AT_EPOCH   = 28693
BSTAR          = .22251424E-2
MEAN_MOTION_DOT = .619E-5
MEAN_MOTION_DDOT = 0

CCSDS_OMM_VERS = 2.0
CREATION_DATE  = 
ORIGINATOR     = 

OBJECT_NAME    = UNKNOWN
OBJECT_ID      = 
CENTER_NAME    = EARTH
REF_FRAME      = TEME
TIME_SYSTEM    = UTC
MEAN_ELEMENT_THEORY = SGP/SGP4

EPOCH          = 2026-01-11T17:17:55.435200
MEAN_MOTION    = 12.29536277
ECCENTRICITY   = .06765727
INCLINATION    = 66.0626
RA_OF_ASC_NODE = 6.6711
ARG_OF_PERICENTER = 207.5787
MEAN_ANOMALY   = 148.7735

EPHEMERIS_TYPE = 0
CLASSIFICATION_TYPE = U
NORAD_CAT_ID   = 270134
ELEMENT_SET_NO = 999
REV_AT_EPOCH   = 27495
BSTAR          = -.54238179E-4
MEAN_MOTION_DOT = -.67E-6
MEAN_MOTION_DDOT = 0

CCSDS_OMM_VERS = 2.0
CREATION_DATE  = 
ORIGINATOR     = 

OBJECT_NAME    = UNKNOWN
OBJECT_ID      = 
CENTER_NAME    = EARTH
REF_FRAME      = TEME
TIME_SYSTEM    = UTC
MEAN_ELEMENT_THEORY = SGP/SGP4

EPOCH          = 2026-01-13T20:28:03.102816
MEAN_MOTION    = 13.04705605
ECCENTRICITY   = .02692692
INCLINATION    = 63.5701
RA_OF_ASC_NODE = 224.0326
ARG_OF_PERICENTER = 334.5384
MEAN_ANOMALY   = 24.2557

EPHEMERIS_TYPE = 0
CLASSIFICATION_TYPE = U
NORAD_CAT_ID   = 270135
ELEMENT_SET_NO = 999
REV_AT_EPOCH   = 29182
BSTAR          = .77689811E-3
MEAN_MOTION_DOT = .218E-5
MEAN_MOTION_DDOT = 0

CCSDS_OMM_VERS = 2.0
CREATION_DATE  = 
ORIGINATOR     = 

OBJECT_NAME    = UNKNOWN
OBJECT_ID      = 
CENTER_NAME    = EARTH
REF_FRAME      = TEME
TIME_SYSTEM    = UTC
MEAN_ELEMENT_THEORY = SGP/SGP4

EPOCH          = 2026-01-17T16:35:11.446944
MEAN_MOTION    = 13.02381251
ECCENTRICITY   = .0028649
INCLINATION    = 90.2398
RA_OF_ASC_NODE = 1.8202
ARG_OF_PERICENTER = 5.9124
MEAN_ANOMALY   = 354.2332

EPHEMERIS_TYPE = 0
CLASSIFICATION_TYPE = U
NORAD_CAT_ID   = 270136
ELEMENT_SET_NO = 999
REV_AT_EPOCH   = 29144
BSTAR          = .12258351E-2
MEAN_MOTION_DOT = .39E-5
MEAN_MOTION_DDOT = 0

